IRIDIUM 33 DEB          
1 39777U 97051AAJ 26094.50103020  .00017739  00000+0  36254-2 0  9995
2 39777  85.9588 120.1868 0060065 162.7033 197.6243 14.59619686618285
IRIDIUM 33 DEB          
1 39778U 97051AAK 26094.44102311  .00006530  00000+0  15003-2 0  9997
2 39778  86.3822 354.2751 0008447  21.9444 338.2124 14.55335580623316
IRIDIUM 33 DEB          
1 39781U 97051AAN 26093.09921048  .00027129  00000+0  10259-1 0  9991
2 39781  86.3754 212.0263 0168544 273.7467 268.6523 14.23562901 96890
IRIDIUM 33 DEB          
1 40996U 97051ABJ 26094.04795335  .00075905  00000+0  50400-2 0  9993
2 40996  86.3495 308.5010 0007405  14.9857 137.9106 15.06857203641737
IRIDIUM 33 DEB          
1 40998U 97051ABL 26079.55472515  .00001671  00000+0  46851-3 0  9991
2 40998  86.3880  11.8556 0009585 105.6376  20.7682 14.45504117 80944
IRIDIUM 33 DEB          
1 46435U 97051ABN 26092.40415951  .00020647  00000+0  54996-2 0  9995
2 46435  86.2821 146.0705 0191380 270.4412 103.8513 14.38045517 95043
IRIDIUM 33 DEB          
1 46734U 97051ABR 26084.40530841  .00002483  00000+0  73414-3 0  9999
2 46734  86.2626 317.7811 0040390 356.4504 184.0485 14.42665972644906
IRIDIUM 33 DEB          
1 46965U 97051ABX 26093.53201685  .00005178  00000+0  10446-2 0  9999
2 46965  86.3292 291.0853 0017442 310.3961  78.8466 14.61214732639009
IRIDIUM 33 DEB          
1 46971U 97051ACD 26093.25475774  .00058321  00000+0  39692-2 0  9999
2 46971  86.3244 280.2657 0005482 258.8751 226.8335 15.06035361659044
IRIDIUM 33 DEB          
1 46972U 97051ACE 26080.03549722  .00001845  00000+0  45931-3 0  9990
2 46972  86.3927 357.0817 0010612 126.4910 247.8233 14.51201793629985
IRIDIUM 33 DEB          
1 46974U 97051ACG 26095.15300229  .00011326  00000+0  29517-2 0  9994
2 46974  86.2989  55.6277 0088295 167.5723 192.7688 14.47113592591473
